[{"OBJECT_NAME":"STARLINK-1655","OBJECT_ID":"2021-012D","EPOCH":"2026-03-09T22:00:01.999584","MEAN_MOTION":15.647461,"ECCENTRICITY":0.00039209,"INCLINATION":53.0429,"RA_OF_ASC_NODE":324.9563,"ARG_OF_PERICENTER":287.628,"MEAN_ANOMALY":165.2974,"EPHEMERIS_TYPE":0,"CLASSIFICATION_TYPE":"U","NORAD_CAT_ID":47623,"ELEMENT_SET_NO":999,"REV_AT_EPOCH":588,"BSTAR":-5.448924e-5,"MEAN_MOTION_DOT":-5.948e-5,"MEAN_MOTION_DDOT":0},{"OBJECT_NAME":"LILIUM-1","OBJECT_ID":"2023-185F","EPOCH":"2026-03-09T22:28:56.680896","MEAN_MOTION":15.66968582,"ECCENTRICITY":0.00057383,"INCLINATION":97.3316,"RA_OF_ASC_NODE":147.7332,"ARG_OF_PERICENTER":186.5847,"MEAN_ANOMALY":173.5339,"EPHEMERIS_TYPE":0,"CLASSIFICATION_TYPE":"U","NORAD_CAT_ID":58467,"ELEMENT_SET_NO":999,"REV_AT_EPOCH":12691,"BSTAR":0.0013028575,"MEAN_MOTION_DOT":0.00140249,"MEAN_MOTION_DDOT":0}]
